{"type": "FeatureCollection", "features": [{"type": "Feature", "properties": {"norad_id": 66316, "name": "QPS-SAR-14 (YACHIHOKO-I)", "group": "last-30-days", "lat": -41.50716769430552, "lon": 36.538371728387915, "alt_km": 582.328406844369, "timestamp": "2025-12-05T07:38:17.625684+00:00", "meta": {"OBJECT_NAME": "QPS-SAR-14 (YACHIHOKO-I)", "OBJECT_ID": "2025-252A", "EPOCH": "2025-12-04T15:59:51.959904", "MEAN_MOTION": 14.97574412, "ECCENTRICITY": 0.0006845, "INCLINATION": 42.0036, "RA_OF_ASC_NODE": 119.6506, "ARG_OF_PERICENTER": 95.5659, "MEAN_ANOMALY": 264.5947, "EPHEMERIS_TYPE": 0, "CLASSIFICATION_TYPE": "U", "NORAD_CAT_ID": 66316, "ELEMENT_SET_NO": 999, "REV_AT_EPOCH": 432, "BSTAR": 0.0011222, "MEAN_MOTION_DOT": 0.00013169, "MEAN_MOTION_DDOT": 0}, "tle": {"line1": "1 66316U 25252A   25338.66657361  .00013169  00000+0  11222-2 0  9998", "line2": "2 66316  42.0036 119.6506 0006845  95.5659 264.5947 14.97574412  4329"}}, "geometry": {"type": "Point", "coordinates": [36.538371728387915, -41.50716769430552]}}, {"type": "Feature", "properties": {"norad_id": 66317, "name": "ELECTRON R/B", "group": "last-30-days", "lat": 2.9956170203882935, "lon": -88.34317187797886, "alt_km": 201.51677739707793, "timestamp": "2025-12-05T07:38:17.625739+00:00", "meta": {"OBJECT_NAME": "ELECTRON R/B", "OBJECT_ID": "2025-252B", "EPOCH": "2025-12-04T16:09:30.337920", "MEAN_MOTION": 16.20073041, "ECCENTRICITY": 0.0062086, "INCLINATION": 41.9852, "RA_OF_ASC_NODE": 99.2617, "ARG_OF_PERICENTER": 80.1195, "MEAN_ANOMALY": 280.6676, "EPHEMERIS_TYPE": 0, "CLASSIFICATION_TYPE": "U", "NORAD_CAT_ID": 66317, "ELEMENT_SET_NO": 999, "REV_AT_EPOCH": 455, "BSTAR": 0.0015417, "MEAN_MOTION_DOT": 0.04861387, "MEAN_MOTION_DDOT": 8.3152e-06}, "tle": {"line1": "1 66317U 25252B   25338.67326780  .04861387  83152-5  15417-2 0  9990", "line2": "2 66317  41.9852  99.2617 0062086  80.1195 280.6676 16.20073041  4557"}}, "geometry": {"type": "Point", "coordinates": [-88.34317187797886, 2.9956170203882935]}}, {"type": "Feature", "properties": {"norad_id": 66319, "name": "STARLINK-35442", "group": "last-30-days", "lat": 30.64008444082554, "lon": 68.1075552509623, "alt_km": 439.5049618767316, "timestamp": "2025-12-05T07:38:17.625756+00:00", "meta": {"OBJECT_NAME": "STARLINK-35442", "OBJECT_ID": "2025-253A", "EPOCH": "2025-12-04T11:12:12.627648", "MEAN_MOTION": 15.40680264, "ECCENTRICITY": 0.0001636, "INCLINATION": 43.0027, "RA_OF_ASC_NODE": 33.5509, "ARG_OF_PERICENTER": 271.7121, "MEAN_ANOMALY": 88.3548, "EPHEMERIS_TYPE": 0, "CLASSIFICATION_TYPE": "U", "NORAD_CAT_ID": 66319, "ELEMENT_SET_NO": 999, "REV_AT_EPOCH": 564, "BSTAR": 0.002125, "MEAN_MOTION_DOT": 0.0008945, "MEAN_MOTION_DDOT": 0}, "tle": {"line1": "1 66319U 25253A   25338.46681282  .00089450  00000+0  21250-2 0  9997", "line2": "2 66319  43.0027  33.5509 0001636 271.7121  88.3548 15.40680264  5642"}}, "geometry": {"type": "Point", "coordinates": [68.1075552509623, 30.64008444082554]}}, {"type": "Feature", "properties": {"norad_id": 66320, "name": "STARLINK-34616", "group": "last-30-days", "lat": -27.258855340050772, "lon": -118.21095513893694, "alt_km": 443.4599456891692, "timestamp": "2025-12-05T07:38:17.625770+00:00", "meta": {"OBJECT_NAME": "STARLINK-34616", "OBJECT_ID": "2025-253B", "EPOCH": "2025-12-04T18:00:02.000160", "MEAN_MOTION": 15.44091342, "ECCENTRICITY": 0.0001165, "INCLINATION": 43.0006, "RA_OF_ASC_NODE": 31.5087, "ARG_OF_PERICENTER": 271.3128, "MEAN_ANOMALY": 31.0064, "EPHEMERIS_TYPE": 0, "CLASSIFICATION_TYPE": "U", "NORAD_CAT_ID": 66320, "ELEMENT_SET_NO": 999, "REV_AT_EPOCH": 584, "BSTAR": -0.049091, "MEAN_MOTION_DOT": -0.02043192, "MEAN_MOTION_DDOT": 0}, "tle": {"line1": "1 66320U 25253B   25338.75002315 -.02043192  00000+0 -49091-1 0  9994", "line2": "2 66320  43.0006  31.5087 0001165 271.3128  31.0064 15.44091342  5847"}}, "geometry": {"type": "Point", "coordinates": [-118.21095513893694, -27.258855340050772]}}, {"type": "Feature", "properties": {"norad_id": 66321, "name": "STARLINK-34615", "group": "last-30-days", "lat": -27.855524420046912, "lon": -118.11123862154943, "alt_km": 417.3041715135205, "timestamp": "2025-12-05T07:38:17.625783+00:00", "meta": {"OBJECT_NAME": "STARLINK-34615", "OBJECT_ID": "2025-253C", "EPOCH": "2025-12-04T18:00:02.000160", "MEAN_MOTION": 15.50645357, "ECCENTRICITY": 0.0001665, "INCLINATION": 43.0003, "RA_OF_ASC_NODE": 30.6633, "ARG_OF_PERICENTER": 280.7282, "MEAN_ANOMALY": 6.7619, "EPHEMERIS_TYPE": 0, "CLASSIFICATION_TYPE": "U", "NORAD_CAT_ID": 66321, "ELEMENT_SET_NO": 999, "REV_AT_EPOCH": 569, "BSTAR": -0.0022769, "MEAN_MOTION_DOT": -0.00132002, "MEAN_MOTION_DDOT": 0}, "tle": {"line1": "1 66321U 25253C   25338.75002315 -.00132002  00000+0 -22769-2 0  9996", "line2": "2 66321  43.0003  30.6633 0001665 280.7282   6.7619 15.50645357  5698"}}, "geometry": {"type": "Point", "coordinates": [-118.11123862154943, -27.855524420046912]}}, {"type": "Feature", "properties": {"norad_id": 66322, "name": "STARLINK-35292", "group": "last-30-days", "lat": 42.80898577526114, "lon": 112.2836216046821, "alt_km": 439.02984558542084, "timestamp": "2025-12-05T07:38:17.625795+00:00", "meta": {"OBJECT_NAME": "STARLINK-35292", "OBJECT_ID": "2025-253D", "EPOCH": "2025-12-04T14:00:01.000224", "MEAN_MOTION": 15.40702534, "ECCENTRICITY": 0.00016414, "INCLINATION": 43.0007, "RA_OF_ASC_NODE": 32.7895, "ARG_OF_PERICENTER": 269.5668, "MEAN_ANOMALY": 55.0705, "EPHEMERIS_TYPE": 0, "CLASSIFICATION_TYPE": "U", "NORAD_CAT_ID": 66322, "ELEMENT_SET_NO": 999, "REV_AT_EPOCH": 561, "BSTAR": -0.0036875485, "MEAN_MOTION_DOT": -0.00151343, "MEAN_MOTION_DDOT": 0}, "tle": {"line1": "1 66322U 25253D   25338.58334491 -.00151343  00000+0 -36875-2 0  9993", "line2": "2 66322  43.0007  32.7895 0001641 269.5668  55.0705 15.40702534  5618"}}, "geometry": {"type": "Point", "coordinates": [112.2836216046821, 42.80898577526114]}}, {"type": "Feature", "properties": {"norad_id": 66323, "name": "STARLINK-35309", "group": "last-30-days", "lat": -42.96865330227438, "lon": -60.259076827158154, "alt_km": 414.5316744321726, "timestamp": "2025-12-05T07:38:17.625806+00:00", "meta": {"OBJECT_NAME": "STARLINK-35309", "OBJECT_ID": "2025-253E", "EPOCH": "2025-12-04T11:55:34.293216", "MEAN_MOTION": 15.50737349, "ECCENTRICITY": 0.0003796, "INCLINATION": 43.0008, "RA_OF_ASC_NODE": 32.9093, "ARG_OF_PERICENTER": 268.5168, "MEAN_ANOMALY": 91.5257, "EPHEMERIS_TYPE": 0, "CLASSIFICATION_TYPE": "U", "NORAD_CAT_ID": 66323, "ELEMENT_SET_NO": 999, "REV_AT_EPOCH": 565, "BSTAR": 0.0030261, "MEAN_MOTION_DOT": 0.00182433, "MEAN_MOTION_DDOT": 0}, "tle": {"line1": "1 66323U 25253E   25338.49692469  .00182433  00000+0  30261-2 0  9991", "line2": "2 66323  43.0008  32.9093 0003796 268.5168  91.5257 15.50737349  5653"}}, "geometry": {"type": "Point", "coordinates": [-60.259076827158154, -42.96865330227438]}}, {"type": "Feature", "properties": {"norad_id": 66324, "name": "STARLINK-35506", "group": "last-30-days", "lat": -42.579868371743714, "lon": -71.45192994045344, "alt_km": 417.5490433402674, "timestamp": "2025-12-05T07:38:17.625817+00:00", "meta": {"OBJECT_NAME": "STARLINK-35506", "OBJECT_ID": "2025-253F", "EPOCH": "2025-12-03T12:46:12.432576", "MEAN_MOTION": 15.5059009, "ECCENTRICITY": 8.705e-05, "INCLINATION": 43.0006, "RA_OF_ASC_NODE": 38.5692, "ARG_OF_PERICENTER": 276.2742, "MEAN_ANOMALY": 83.8019, "EPHEMERIS_TYPE": 0, "CLASSIFICATION_TYPE": "U", "NORAD_CAT_ID": 66324, "ELEMENT_SET_NO": 999, "REV_AT_EPOCH": 550, "BSTAR": 0.00045167229, "MEAN_MOTION_DOT": 0.00026255, "MEAN_MOTION_DDOT": 0}, "tle": {"line1": "1 66324U 25253F   25337.53208834  .00026255  00000+0  45167-3 0  9996", "line2": "2 66324  43.0006  38.5692 0000870 276.2742  83.8019 15.50590090  5507"}}, "geometry": {"type": "Point", "coordinates": [-71.45192994045344, -42.579868371743714]}}, {"type": "Feature", "properties": {"norad_id": 66325, "name": "STARLINK-35504", "group": "last-30-days", "lat": 4.972352489396808, "lon": -157.01607771764492, "alt_km": 443.46130636459293, "timestamp": "2025-12-05T07:38:17.625853+00:00", "meta": {"OBJECT_NAME": "STARLINK-35504", "OBJECT_ID": "2025-253G", "EPOCH": "2025-12-04T18:00:02.000160", "MEAN_MOTION": 15.4073236, "ECCENTRICITY": 9.99e-05, "INCLINATION": 43.0005, "RA_OF_ASC_NODE": 31.6162, "ARG_OF_PERICENTER": 265.7105, "MEAN_ANOMALY": 351.481, "EPHEMERIS_TYPE": 0, "CLASSIFICATION_TYPE": "U", "NORAD_CAT_ID": 66325, "ELEMENT_SET_NO": 999, "REV_AT_EPOCH": 564, "BSTAR": -0.002355, "MEAN_MOTION_DOT": -0.00097532, "MEAN_MOTION_DDOT": 0}, "tle": {"line1": "1 66325U 25253G   25338.75002315 -.00097532  00000+0 -23550-2 0  9997", "line2": "2 66325  43.0005  31.6162 0000999 265.7105 351.4810 15.40732360  5646"}}, "geometry": {"type": "Point", "coordinates": [-157.01607771764492, 4.972352489396808]}}, {"type": "Feature", "properties": {"norad_id": 66326, "name": "STARLINK-35479", "group": "last-30-days", "lat": -42.93607694943839, "lon": -58.72470144393915, "alt_km": 417.0194424396377, "timestamp": "2025-12-05T07:38:17.625869+00:00", "meta": {"OBJECT_NAME": "STARLINK-35479", "OBJECT_ID": "2025-253H", "EPOCH": "2025-12-04T15:00:38.013408", "MEAN_MOTION": 15.50615042, "ECCENTRICITY": 0.0001415, "INCLINATION": 43.0005, "RA_OF_ASC_NODE": 32.1514, "ARG_OF_PERICENTER": 287.7439, "MEAN_ANOMALY": 72.3267, "EPHEMERIS_TYPE": 0, "CLASSIFICATION_TYPE": "U", "NORAD_CAT_ID": 66326, "ELEMENT_SET_NO": 999, "REV_AT_EPOCH": 567, "BSTAR": 0.001591, "MEAN_MOTION_DOT": 0.00094247, "MEAN_MOTION_DDOT": 0}, "tle": {"line1": "1 66326U 25253H   25338.62543997  .00094247  00000+0  15910-2 0  9999", "line2": "2 66326  43.0005  32.1514 0001415 287.7439  72.3267 15.50615042  5678"}}, "geometry": {"type": "Point", "coordinates": [-58.72470144393915, -42.93607694943839]}}]}